[{"OBJECT_NAME":"STARLINK-31920","OBJECT_ID":"2024-100Y","EPOCH":"2026-03-09T22:00:01.999584","MEAN_MOTION":15.33615653,"ECCENTRICITY":0.00055131,"INCLINATION":42.9978,"RA_OF_ASC_NODE":90.9988,"ARG_OF_PERICENTER":118.6152,"MEAN_ANOMALY":56.7253,"EPHEMERIS_TYPE":0,"CLASSIFICATION_TYPE":"U","NORAD_CAT_ID":59907,"ELEMENT_SET_NO":999,"REV_AT_EPOCH":580,"BSTAR":0.0037091852,"MEAN_MOTION_DOT":0.00124969,"MEAN_MOTION_DDOT":0},{"OBJECT_NAME":"YAOGAN-43 01A","OBJECT_ID":"2024-148A","EPOCH":"2026-03-10T00:09:07.136640","MEAN_MOTION":15.32738016,"ECCENTRICITY":0.00034906,"INCLINATION":35.0055,"RA_OF_ASC_NODE":53.2215,"ARG_OF_PERICENTER":348.6469,"MEAN_ANOMALY":11.4169,"EPHEMERIS_TYPE":0,"CLASSIFICATION_TYPE":"U","NORAD_CAT_ID":60458,"ELEMENT_SET_NO":999,"REV_AT_EPOCH":8720,"BSTAR":0.00060147276,"MEAN_MOTION_DOT":0.00019533,"MEAN_MOTION_DDOT":0}]
